[Satellite]
VERSION=1.1
NAME=XW-2C
NICKNAME=XW-2C
TLE1=1 40906U 15049H   19317.80747933  .00000699  00000-0  39974-4 0  9990
TLE2=2 40906  97.4723 317.4813 0016184  49.6688  32.7858 15.15820413229434
STATUS=0
